[{"OBJECT_NAME":"IRIDIUM 33 DEB","OBJECT_ID":"1997-051ZR","EPOCH":"2026-03-05T23:33:02.494368","MEAN_MOTION":14.55528801,"ECCENTRICITY":0.00047597,"INCLINATION":86.3233,"RA_OF_ASC_NODE":313.8754,"ARG_OF_PERICENTER":113.3476,"MEAN_ANOMALY":246.8233,"EPHEMERIS_TYPE":0,"CLASSIFICATION_TYPE":"U","NORAD_CAT_ID":38241,"ELEMENT_SET_NO":999,"REV_AT_EPOCH":61411,"BSTAR":0.0006958397,"MEAN_MOTION_DOT":3.05e-5,"MEAN_MOTION_DDOT":0},{"OBJECT_NAME":"IRIDIUM 33 DEB","OBJECT_ID":"1997-051AAB","EPOCH":"2026-02-23T12:18:19.545408","MEAN_MOTION":14.51138309,"ECCENTRICITY":0.0024339,"INCLINATION":86.3472,"RA_OF_ASC_NODE":338.3518,"ARG_OF_PERICENTER":199.6569,"MEAN_ANOMALY":160.3701,"EPHEMERIS_TYPE":0,"CLASSIFICATION_TYPE":"U","NORAD_CAT_ID":38474,"ELEMENT_SET_NO":999,"REV_AT_EPOCH":66373,"BSTAR":0.00065939086,"MEAN_MOTION_DOT":2.644e-5,"MEAN_MOTION_DDOT":0},{"OBJECT_NAME":"IRIDIUM 33 DEB","OBJECT_ID":"1997-051AAJ","EPOCH":"2026-03-07T10:54:12.926592","MEAN_MOTION":14.58868473,"ECCENTRICITY":0.00566943,"INCLINATION":85.961,"RA_OF_ASC_NODE":133.8649,"ARG_OF_PERICENTER":257.1849,"MEAN_ANOMALY":102.3022,"EPHEMERIS_TYPE":0,"CLASSIFICATION_TYPE":"U","NORAD_CAT_ID":39777,"ELEMENT_SET_NO":999,"REV_AT_EPOCH":61419,"BSTAR":0.0038899525,"MEAN_MOTION_DOT":0.0001867,"MEAN_MOTION_DDOT":0},{"OBJECT_NAME":"IRIDIUM 33 DEB","OBJECT_ID":"1997-051AAK","EPOCH":"2026-03-06T13:27:08.013888","MEAN_MOTION":14.55080125,"ECCENTRICITY":0.00098194,"INCLINATION":86.3828,"RA_OF_ASC_NODE":6.8144,"ARG_OF_PERICENTER":95.9059,"MEAN_ANOMALY":264.3268,"EPHEMERIS_TYPE":0,"CLASSIFICATION_TYPE":"U","NORAD_CAT_ID":39778,"ELEMENT_SET_NO":999,"REV_AT_EPOCH":61911,"BSTAR":0.0013446599,"MEAN_MOTION_DOT":5.823e-5,"MEAN_MOTION_DDOT":0},{"OBJECT_NAME":"IRIDIUM 33 DEB","OBJECT_ID":"1997-051ABJ","EPOCH":"2026-03-07T11:02:11.153184","MEAN_MOTION":15.04355632,"ECCENTRICITY":0.00105712,"INCLINATION":86.348,"RA_OF_ASC_NODE":321.5871,"ARG_OF_PERICENTER":86.7515,"MEAN_ANOMALY":38.318,"EPHEMERIS_TYPE":0,"CLASSIFICATION_TYPE":"U","NORAD_CAT_ID":40996,"ELEMENT_SET_NO":999,"REV_AT_EPOCH":63758,"BSTAR":0.0045408492,"MEAN_MOTION_DOT":0.00063892,"MEAN_MOTION_DDOT":0},{"OBJECT_NAME":"IRIDIUM 33 DEB","OBJECT_ID":"1997-051ABL","EPOCH":"2026-03-07T14:37:37.052832","MEAN_MOTION":14.4545489,"ECCENTRICITY":0.00083744,"INCLINATION":86.3864,"RA_OF_ASC_NODE":17.3824,"ARG_OF_PERICENTER":140.5145,"MEAN_ANOMALY":345.1343,"EPHEMERIS_TYPE":0,"CLASSIFICATION_TYPE":"U","NORAD_CAT_ID":40998,"ELEMENT_SET_NO":999,"REV_AT_EPOCH":7907,"BSTAR":0.00078381017,"MEAN_MOTION_DOT":2.78e-5,"MEAN_MOTION_DDOT":0},{"OBJECT_NAME":"IRIDIUM 33 DEB","OBJECT_ID":"1997-051ABX","EPOCH":"2026-03-05T15:09:14.031360","MEAN_MOTION":14.61027741,"ECCENTRICITY":0.0020944,"INCLINATION":86.333,"RA_OF_ASC_NODE":303.9282,"ARG_OF_PERICENTER":47.4459,"MEAN_ANOMALY":342.3534,"EPHEMERIS_TYPE":0,"CLASSIFICATION_TYPE":"U","NORAD_CAT_ID":46965,"ELEMENT_SET_NO":999,"REV_AT_EPOCH":63478,"BSTAR":0.00082387,"MEAN_MOTION_DOT":4.076e-5,"MEAN_MOTION_DDOT":0},{"OBJECT_NAME":"IRIDIUM 33 DEB","OBJECT_ID":"1997-051ACD","EPOCH":"2026-02-15T04:06:14.442336","MEAN_MOTION":15.0282309,"ECCENTRICITY":0.00183243,"INCLINATION":86.3384,"RA_OF_ASC_NODE":302.6959,"ARG_OF_PERICENTER":121.5358,"MEAN_ANOMALY":29.3036,"EPHEMERIS_TYPE":0,"CLASSIFICATION_TYPE":"U","NORAD_CAT_ID":46971,"ELEMENT_SET_NO":999,"REV_AT_EPOCH":65196,"BSTAR":0.0024316654,"MEAN_MOTION_DOT":0.00032805,"MEAN_MOTION_DDOT":0},{"OBJECT_NAME":"IRIDIUM 33 DEB","OBJECT_ID":"1997-051ACE","EPOCH":"2026-02-13T16:21:13.155264","MEAN_MOTION":14.51029384,"ECCENTRICITY":0.00070915,"INCLINATION":86.39,"RA_OF_ASC_NODE":12.2992,"ARG_OF_PERICENTER":258.5659,"MEAN_ANOMALY":223.6549,"EPHEMERIS_TYPE":0,"CLASSIFICATION_TYPE":"U","NORAD_CAT_ID":46972,"ELEMENT_SET_NO":999,"REV_AT_EPOCH":62485,"BSTAR":0.00064339815,"MEAN_MOTION_DOT":2.565e-5,"MEAN_MOTION_DDOT":0},{"OBJECT_NAME":"IRIDIUM 33 DEB","OBJECT_ID":"1997-051ACG","EPOCH":"2026-02-19T19:32:51.839232","MEAN_MOTION":14.46114347,"ECCENTRICITY":0.0088187,"INCLINATION":86.296,"RA_OF_ASC_NODE":75.0684,"ARG_OF_PERICENTER":318.574,"MEAN_ANOMALY":40.8797,"EPHEMERIS_TYPE":0,"CLASSIFICATION_TYPE":"U","NORAD_CAT_ID":46974,"ELEMENT_SET_NO":999,"REV_AT_EPOCH":58506,"BSTAR":0.0022535,"MEAN_MOTION_DOT":8.465e-5,"MEAN_MOTION_DDOT":0}]
